{
  "norad_id": 52912,
  "name": "GAOFEN-12 03",
  "history": [
    {
      "epoch": "2026-03-28T22:26:13.885152Z",
      "apogee_km": 631.3057151159474,
      "perigee_km": 627.9970579071396,
      "latitude_deg": -5.786809011315154e-07,
      "longitude_deg": 174.8861466757295,
      "height_km": 632.088086977996,
      "semi_major_axis_km": 7007.788386511544,
      "eccentricity": 0.00023607,
      "inclination_deg": 97.8381,
      "raan_deg": 337.7922,
      "arg_perigee_deg": 69.3746,
      "mean_anomaly_deg": 290.7719,
      "mean_motion_rev_day": 14.79896331
    },
    {
      "epoch": "2026-03-29T04:55:41.130624Z",
      "apogee_km": 631.3018591838727,
      "perigee_km": 627.9983883337327,
      "latitude_deg": -5.907487775756325e-05,
      "longitude_deg": 77.52006011043058,
      "height_km": 632.0561341142795,
      "semi_major_axis_km": 7007.787123758802,
      "eccentricity": 0.0002357,
      "inclination_deg": 97.8381,
      "raan_deg": 338.0562,
      "arg_perigee_deg": 68.1971,
      "mean_anomaly_deg": 291.9491,
      "mean_motion_rev_day": 14.79896731
    },
    {
      "epoch": "2026-03-30T03:38:46.478112Z",
      "apogee_km": 631.2711251203036,
      "perigee_km": 628.0237178193938,
      "latitude_deg": 1.6793826505505268e-05,
      "longitude_deg": 96.73846774913132,
      "height_km": 632.0270500382084,
      "semi_major_axis_km": 7007.784421469848,
      "eccentricity": 0.0002317,
      "inclination_deg": 97.8381,
      "raan_deg": 338.9799,
      "arg_perigee_deg": 66.7883,
      "mean_anomaly_deg": 293.3573,
      "mean_motion_rev_day": 14.79897587
    },
    {
      "epoch": "2026-03-30T06:53:30.122880Z",
      "apogee_km": 631.2690465305441,
      "perigee_km": 628.0283661085132,
      "latitude_deg": 5.499407850943606e-05,
      "longitude_deg": 48.055023297321895,
      "height_km": 632.0173468270056,
      "semi_major_axis_km": 7007.785706319528,
      "eccentricity": 0.00023122,
      "inclination_deg": 97.8381,
      "raan_deg": 339.1116,
      "arg_perigee_deg": 66.3132,
      "mean_anomaly_deg": 293.8323,
      "mean_motion_rev_day": 14.7989718
    },
    {
      "epoch": "2026-03-30T15:00:19.142784Z",
      "apogee_km": 631.2414533710353,
      "perigee_km": 628.054873301563,
      "latitude_deg": 4.702542120082416e-05,
      "longitude_deg": -73.65253921617516,
      "height_km": 632.0436126913153,
      "semi_major_axis_km": 7007.785163336299,
      "eccentricity": 0.00022736,
      "inclination_deg": 97.8382,
      "raan_deg": 339.4415,
      "arg_perigee_deg": 66.9358,
      "mean_anomaly_deg": 293.2094,
      "mean_motion_rev_day": 14.79897352
    },
    {
      "epoch": "2026-03-30T21:29:46.309632Z",
      "apogee_km": 631.2354282792885,
      "perigee_km": 628.0503923100596,
      "latitude_deg": 4.585504804227627e-05,
      "longitude_deg": -171.01820489955404,
      "height_km": 632.0125385742716,
      "semi_major_axis_km": 7007.779910294674,
      "eccentricity": 0.00022725,
      "inclination_deg": 97.8381,
      "raan_deg": 339.7056,
      "arg_perigee_deg": 65.9091,
      "mean_anomaly_deg": 294.2359,
      "mean_motion_rev_day": 14.79899016
    },
    {
      "epoch": "2026-03-31T20:12:51.359040Z",
      "apogee_km": 631.2049982163835,
      "perigee_km": 628.0599112850914,
      "latitude_deg": -3.7037423438212465e-06,
      "longitude_deg": -151.79863396392943,
      "height_km": 632.0167908511983,
      "semi_major_axis_km": 7007.769454750737,
      "eccentricity": 0.0002244,
      "inclination_deg": 97.8382,
      "raan_deg": 340.6292,
      "arg_perigee_deg": 66.1684,
      "mean_anomaly_deg": 293.9763,
      "mean_motion_rev_day": 14.79902328
    },
    {
      "epoch": "2026-04-01T20:33:17.987616Z",
      "apogee_km": 631.2075416958796,
      "perigee_km": 628.0302251783287,
      "latitude_deg": -7.494741315988674e-05,
      "longitude_deg": -156.91931359941137,
      "height_km": 631.9871660113685,
      "semi_major_axis_km": 7007.755883437104,
      "eccentricity": 0.0002267,
      "inclination_deg": 97.838,
      "raan_deg": 341.6191,
      "arg_perigee_deg": 65.7919,
      "mean_anomaly_deg": 294.3529,
      "mean_motion_rev_day": 14.79906627
    },
    {
      "epoch": "2026-04-02T20:53:44.448576Z",
      "apogee_km": 631.1901836833267,
      "perigee_km": 628.0282885815823,
      "latitude_deg": -3.12993116815549e-05,
      "longitude_deg": -162.0395091454562,
      "height_km": 631.950528401686,
      "semi_major_axis_km": 7007.746236132454,
      "eccentricity": 0.0002256,
      "inclination_deg": 97.8379,
      "raan_deg": 342.6088,
      "arg_perigee_deg": 64.5861,
      "mean_anomaly_deg": 295.5584,
      "mean_motion_rev_day": 14.79909683
    },
    {
      "epoch": "2026-04-02T22:31:06.191040Z",
      "apogee_km": 631.1889306484427,
      "perigee_km": 628.0261953722647,
      "latitude_deg": -7.473581791255146e-05,
      "longitude_deg": 173.6193610714129,
      "height_km": 631.9407077360029,
      "semi_major_axis_km": 7007.744563010354,
      "eccentricity": 0.00022566,
      "inclination_deg": 97.8379,
      "raan_deg": 342.6749,
      "arg_perigee_deg": 64.2655,
      "mean_anomaly_deg": 295.8789,
      "mean_motion_rev_day": 14.79910213
    },
    {
      "epoch": "2026-04-03T19:36:48.993408Z",
      "apogee_km": 631.1618286514185,
      "perigee_km": 628.04198329048,
      "latitude_deg": -2.4995412771084518e-05,
      "longitude_deg": -142.81773897628713,
      "height_km": 631.9036934776318,
      "semi_major_axis_km": 7007.7389059709485,
      "eccentricity": 0.0002226,
      "inclination_deg": 97.8376,
      "raan_deg": 343.5325,
      "arg_perigee_deg": 62.5913,
      "mean_anomaly_deg": 297.5525,
      "mean_motion_rev_day": 14.79912005
    },
    {
      "epoch": "2026-04-04T06:58:21.192384Z",
      "apogee_km": 631.1438211616723,
      "perigee_km": 628.0500467845004,
      "latitude_deg": 3.853374792541377e-05,
      "longitude_deg": 46.793294376120905,
      "height_km": 631.8733648794645,
      "semi_major_axis_km": 7007.733933973086,
      "eccentricity": 0.00022074,
      "inclination_deg": 97.8373,
      "raan_deg": 343.9942,
      "arg_perigee_deg": 61.2722,
      "mean_anomaly_deg": 298.8712,
      "mean_motion_rev_day": 14.7991358
    },
    {
      "epoch": "2026-04-05T15:25:35.758272Z",
      "apogee_km": 631.0639863227461,
      "perigee_km": 628.0990206239276,
      "latitude_deg": 1.0311604213748072e-05,
      "longitude_deg": -80.03083509784223,
      "height_km": 631.8726909225753,
      "semi_major_axis_km": 7007.718503473337,
      "eccentricity": 0.00021155,
      "inclination_deg": 97.8367,
      "raan_deg": 345.3136,
      "arg_perigee_deg": 60.5471,
      "mean_anomaly_deg": 299.5952,
      "mean_motion_rev_day": 14.79918468
    },
    {
      "epoch": "2026-04-05T20:17:40.902720Z",
      "apogee_km": 631.0720945932007,
      "perigee_km": 628.0826036518647,
      "latitude_deg": 1.8231822102990395e-06,
      "longitude_deg": -153.05419508469325,
      "height_km": 631.8554080198574,
      "semi_major_axis_km": 7007.714349122532,
      "eccentricity": 0.0002133,
      "inclination_deg": 97.8366,
      "raan_deg": 345.5116,
      "arg_perigee_deg": 60.2347,
      "mean_anomaly_deg": 299.9077,
      "mean_motion_rev_day": 14.79919784
    },
    {
      "epoch": "2026-04-06T06:01:51.183840Z",
      "apogee_km": 631.0549630816613,
      "perigee_km": 628.0912623207978,
      "latitude_deg": -6.357413343812811e-05,
      "longitude_deg": 60.89892388465151,
      "height_km": 631.8521405668658,
      "semi_major_axis_km": 7007.710112701229,
      "eccentricity": 0.00021146,
      "inclination_deg": 97.8363,
      "raan_deg": 345.9074,
      "arg_perigee_deg": 59.9899,
      "mean_anomaly_deg": 300.1522,
      "mean_motion_rev_day": 14.79921126
    },
    {
      "epoch": "2026-04-07T14:29:05.320320Z",
      "apogee_km": 631.0235246940256,
      "perigee_km": 628.105938155164,
      "latitude_deg": 1.8124225339766765e-05,
      "longitude_deg": -65.92382833918397,
      "height_km": 631.8289848161592,
      "semi_major_axis_km": 7007.701731424594,
      "eccentricity": 0.00020817,
      "inclination_deg": 97.8361,
      "raan_deg": 347.2264,
      "arg_perigee_deg": 58.7856,
      "mean_anomaly_deg": 301.356,
      "mean_motion_rev_day": 14.79923781
    },
    {
      "epoch": "2026-04-07T20:58:32.118240Z",
      "apogee_km": 631.0278661955481,
      "perigee_km": 628.0958449943673,
      "latitude_deg": 1.5564130425013337e-06,
      "longitude_deg": -163.28805161195763,
      "height_km": 631.8239400346052,
      "semi_major_axis_km": 7007.698855594957,
      "eccentricity": 0.0002092,
      "inclination_deg": 97.836,
      "raan_deg": 347.4904,
      "arg_perigee_deg": 58.8579,
      "mean_anomaly_deg": 301.2838,
      "mean_motion_rev_day": 14.79924692
    },
    {
      "epoch": "2026-04-08T14:49:30.900000Z",
      "apogee_km": 631.008030131441,
      "perigee_km": 628.1216978876919,
      "latitude_deg": -4.038793772028011e-06,
      "longitude_deg": -71.04083667687925,
      "height_km": 631.8022585868096,
      "semi_major_axis_km": 7007.701864009566,
      "eccentricity": 0.00020594,
      "inclination_deg": 97.8358,
      "raan_deg": 348.2156,
      "arg_perigee_deg": 57.144,
      "mean_anomaly_deg": 302.997,
      "mean_motion_rev_day": 14.79923739
    },
    {
      "epoch": "2026-04-09T20:02:01.473792Z",
      "apogee_km": 630.9677073375024,
      "perigee_km": 628.1562185135763,
      "latitude_deg": -1.3496115099482426e-05,
      "longitude_deg": -149.18057996281615,
      "height_km": 631.7852964355606,
      "semi_major_axis_km": 7007.698962925539,
      "eccentricity": 0.0002006,
      "inclination_deg": 97.8356,
      "raan_deg": 349.4028,
      "arg_perigee_deg": 55.4536,
      "mean_anomaly_deg": 304.6865,
      "mean_motion_rev_day": 14.79924658
    }
  ]
}